Name,Address,Locality,Region,Activities,yaxis,xaxis,phone,website
MAGNITIKI AXONIKI TOMOGRAFIA - KENTRO MASTOU ISTHMOU;;Isthmia;Corinthia;--Allergy test--Amniocentesis and karyotype--Biochemical--Blood tests;;;tel:+302741071234;https://www.matp.gr/
DIAGNOSTIKA KENTRA YGIEIA PETANI;295 Agiou Dimitriou Avenue;Agios Dimitrios;Attica;--CT scanner--Hematology analyzer--Abdominal ultrasounds--Allergy test;23.72381805198134;37.9239541485318;tel:+302109824020;http://www.ygeia-petani.gr/
OI AGIOI ANARGYROI;9 Syrou Street;Galatsi;Attica;--Hematology analyzer--Carotid triplex--Check up--Strep test;23.75423160265871;38.012744420121585;tel:+302102610447;
ISTODIEREVNITIKI - ZARAMPOUKAS TH. - ELEFTHERIADIS EL.;Tsimiski 93;Thessaloniki;Thessaloniki;--Pathology Laboratory--Histological Examination, Biomarkers--Diagnosis of Cancer--Biopsy--Molecular tests;22.946751238105318;40.63039453858564;tel:+302310232489;http://www.biopsy.gr/
SAKARELLOS DIAGNOSTIKA KENTRA;2-4 Iroon Polytechneiou Street;Nea Erythrea;Attica;--Blood tests--Bone density measurement--Triplex;23.816241405690857;38.0884837834749;tel:+302108000273;http://www.sakarellos.gr/
OPTIMA DIAGNOSTICS;49 Antypa Marinou Street;Heraklion;Attica;--Antibody testing--Biochemical--Blood tests--Bone density measurement;23.775183366755876;38.041816557617835;tel:+302102711888;https://optima-diagnostics.gr/
APEIKONISI MASTOU;7 Frontzou Kosta Street;Ioannina;Ioannina;--Check up--Mammographies;20.852896949752733;39.667260791692264;tel:+302651022202;http://www.apeikonisimastou.gr/
AXONIKOS - MAGNITIKOS PYRGOU STASINOPOULOS DIMITRIOS;48 Patron Street;Pyrgos;Ilia;--Check up--CT scans--Triplex;21.43938552215916;37.672260760317236;tel:+302621023450;https://www.axonikos-magnitikos-pyrgou.gr/
IATRIKI EPIVLEPSI;6 Dervenakion Street & Averof Street;Dafni;Attica;--Abdominal ultrasounds--Allergy test--Biochemical--Blood tests;23.737090435247623;37.951140499912725;tel:+302109703356;https://iepivlepsi.gr/
FALIREAS MEDICAL;9 Pagoni Chrysanthou Street & Mitropetrova Street;Kalamata;Messinia;--Antibiogram--Antibody testing--Biochemical--Blood tests;22.110091828683885;37.03928140456993;tel:+302721101010;https://www.falireasmedical.gr/
DIAGNOSTIKA ERGASTIRIA - PATRIARCHEAS V. GEORGIOS;24 Filopoimenos Street & Riga Feraiou Street;Patra;Achaea;--Biochemical analyzer--Digital mammogram--Hematology analyzer--Ultrasound equipment;21.732233595292694;38.2452417978921;tel:+302610273009;https://www.facebook.com/Patriarcheas.Med
PAPANDREOU IATRIKES YPIRESIES;49 28 Oktovriou Street (Patision Street);Athens;Attica;--;23.730374574044824;37.9885918344723;tel:+302105222500;http://www.medpap.gr/
ICHO AKTINODIAGNOSI;20 Platonos Street & Kyprou Street;Agioi Anargyroi;Attica;--Tooth axial, 3D Dental Scan--Vascular Triplex, Digital panoramic--Digital cephalometry--Fine-needle Breast, Thyroid Puncture--CT scanner--Hematology analyzer--Antibody testing--Bone density measurement;23.716294523766297;38.028179054672734;tel:+302102610706;http://www.ixoaktinodiagnosi.gr/
IPPOKRATIS;65 Iroon Polytechneiou Avenue;Piraeus;Attica;--Biochemical--Blood tests--Breast ultrasound--Carotid triplex;23.64374592522128;37.939124057578084;tel:+302119909900;http://www.ippokratis-hospital.gr/
IATRIKI FRONTIDA A.E.;64 Dekeleias Avenue;Nea Chalkidona;Attica;--Microbiology--CT scanner--Ultrasounds--Cardiology Department--Biochemical--Blood tests--Breast biopsy - histological examination--Cardiac examination;23.735906239065912;38.030685228543774;tel:+302102586006;http://www.iatriki-frontida.gr/
BIOANALYSIS - LOULELIS D. VASILIS;3 Vasileos Georgiou I Square;Patra;Achaea;--Digital mammogram--Hematology analyzer--Tomosynthesis--Ultrasound equipment;21.734583492330813;38.246837061288886;tel:+302610275218;https://www.bioanalysis.gr/
OI AGIOI ANARGYROI A.E.;78 Dimokratias Avenue & 1 Kanari Konstantinou Street;Agioi Anargyroi;Attica;--Biochemical analyzer--CT scanner--Electroencephalograph--Electromyograph;23.719074117715355;38.02832993291253;tel:+302102634401;
A PROLIPSIS;31 Theomitoros Street;Kalamaki (or Alimos);Attica;--Blood tests--Check up--Coronavirus test (Molecular)--Cultivation;23.728890736281794;37.91827877019649;tel:+302109811880;http://www.aprolipsis.gr/
A PROLIPSIS;37 Syntagmatarchi Davaki Konstantinou Street;Kallithea;Attica;--Blood tests--Check up--CT scans--Exam packages;23.70463022188686;37.95350598822555;tel:+302109511000;http://www.aprolipsis.gr/
IATRIKI APEIKONISI VOLOU;9 Agiou Nikolaou Street;Volos;Magnesia;--Blood tests--Check up--Mammographies--Scintigraphy;22.948291003128507;39.35953073766601;tel:+302421022203;http://www.iavolou.gr/
OI AGIOI ANARGYROI;169 Irakleiou Avenue;Nea Ionia;Attica;--Hematology analyzer--Examinations for hepatitis B, C--Hormonal--Microbiological;23.75080515236044;38.03892839159835;tel:+302102610447;
MAGNITIKI AXONIKI TOMOGRAFIA - KENTRO MASTOU ISTHMOU;;Isthmia;Corinthia;--Allergy test--Amniocentesis and karyotype--Biochemical--Blood tests;;;tel:+302741071234;https://www.matp.gr/
VIORMONIKI - MASTORAKOU ANNA;210-212 Korinthou Avenue;Patra;Achaea;--Screening and prenatal testing--Hormone disorders, diseases--Special laboratory investigation--Testing--Allergy test--Antibiogram--Antibody testing--Biochemical;21.73743713298541;38.24766706536453;tel:+302610275556;http://www.biormoniki.gr/
VASIADOU VASILIKI;Komninon 90;Kalamaria;Thessaloniki;--Radiologist, Ultrasound Medical Office--Children, Adults Diagnostic Ultrasound--Elastography--Color Triplex Ultrasound--Abdominal ultrasounds--Breast elastography--Breast ultrasound--Carotid triplex;22.9519170750319;40.58054312124626;tel:+302310029299;http://www.yperixos-thessaloniki.gr/
IATRODIAGNOSI;19 Dyrrachiou Street;Athens;Attica;--Biochemical analyzer--Electromyograph--Hematology analyzer--Antibody testing;23.718578061565715;38.003110918823616;tel:+302105138222;
ALPHALAB;32 Diakou Athanasiou Street;Patra;Achaea;--Allergy test--Antibiogram--Antibody testing--Biochemical;21.734949472444953;38.24204136329481;tel:+302613028333;
MIKROSKOPISI E.P.E. - LAINIS ANDREAS;4 Thetidos Street & Michalakopoulou Andrea Andrea Street;Athens;Attica;--Blood tests--Gynecological--Immunological;23.752136387392117;37.975255603548256;tel:+302107238880;https://www.mikroskopisi.gr/
V - DIAGNOSI;104 Agiou Andreou Street;Patra;Achaea;--Antibiogram--Antibody testing--Blood tests--Bone density measurement;21.731908086933288;38.24652405071341;tel:+302610220623;https://www.b-diagnosi.gr/
PYRINIKI IATRIKI AGRINIOU;32 Georgiou Mpaimpa Street;Agrinio;Etoloakarnania;--Thallium, Gamma Camera, Papp-A--Bone Density, Hormones, Á-Test--Tumor Markers, Thyroid, Vitamins--Contracted with EOPYY, Fat Measurement--Allergy test--Antibody testing--Biochemical--Blood tests;21.412109462472912;38.6250404379699;tel:+302641059500;http://www.nuclearmed.gr/
AKTINOLOGIKO ERGASTIRIO - SOIS IOANNIS & SOIS IOAKEIM;Tsimiski 88;Thessaloniki;Thessaloniki;--Digital Mammography, X-Rays--Ultrasound, Diagnosis of Osteoporosis--Breast, Thyroid Hook Biopsy--Digital Cephalometric Radiography CBCT--Bone density measurement--Check up--Doppler--Gastroenterology;22.946467073458653;40.63041897209021;tel:+302310272178;
VENIZELEIO;22 Eleftheriou Venizelou Street;Nea Smyrni;Attica;--CT scanner--MRI scanner--Abdominal ultrasounds--Allergy test;23.71518299506529;37.94732211488946;tel:+302109330470;http://www.venizelio.gr/
MAGNITIKI PATRON;105 Othonos & Amalias Avenue;Patra;Achaea;--Biochemical analyzer--CT scanner--Hematology analyzer--MRI scanner;21.72792928140015;38.24477104547226;tel:+302610361100;http://www.magnitikipatron.gr/
ASKLIPIOS IDIOTIKO POLYIATREIO;8 Dorylaiou Street & Soutsou Dimitriou Street;Athens;Attica;--Blood tests--Triplex;23.756277453810807;37.98317755369268;tel:+302106433559;http://www.asklipios.gr/
PAPANDREOU IATRIKES YPIRESIES;345 28 Oktovriou Street (Patision Street);Athens;Attica;--Blood tests;23.73578960391487;38.02191552022565;tel:+302105222500;http://www.medpap.gr/
MAGNITIKI PATRON;Ypsilantou Street & Panagi Tsaldari Street;Pyrgos;Ilia;--Biochemical analyzer--CT scanner--Hematology analyzer--MRI scanner;21.43712058036721;37.67647376647386;tel:+302621023300;http://www.magnitikipatron.gr/
MOUSTAKAS VASILEIOS;48 Konstantinou Palaiologou Street;Rhodes;Dodecanese;--Ultrasound equipment--Abdominal ultrasounds--Bone density measurement--Breast ultrasound;28.219092035361097;36.43654658284596;tel:+302241032777;https://www.prolipsis-radsafe.gr/
MIKRODIAGNOSTIKI - CHATZIMPOUGIAS IOANNIS Dr - CHATZIMPOUGIAS DIMITRIS Dr;88 Mitropoleos Street;Thessaloniki;Thessaloniki;--Amniocentesis and karyotype--Checking for infectious diseases--Gastroenterology--Gynecological;22.94723296899774;40.62908368703224;tel:+302310232272;http://www.microdiagnostics.gr/
MY MASTOS - PROTYPO KENTRO MASTOU;14 Papandreou Georgiou Street;Thessaloniki;Thessaloniki;--CT scanner--Digital mammogram--MRI scanner--Tomosynthesis;22.95130474627622;40.600077180904655;tel:+302310858060;http://mymastos.gr/
IATRIKI EPIVLEPSI;83 Kolokotroni Theodorou Street & 19 Cheimarras Street;Vironas;Attica;--Abdominal ultrasounds--Allergy test--Biochemical--Blood tests;23.75257967540599;37.95851960726176;tel:+302107107516;http://www.iepivlepsi.gr/
MRCTSCAN MEDISCAN;1 Argonafton Street & 38 Argous Street;Nafplion;Argolida;--Mammography, Blood Vessel Triplex--Panoramic X-rays, Ultrasound--Shear Wave Elastography Method, EOPYY--CT Scan, Dental Scan--CT scans--Magnetic resonance imaging;22.80684901849353;37.5695984413458;tel:+302752096368;http://www.mediscandiagnostiko-nafplio.gr/
ATHANASOPOULOS - MEDICARE;Old National Road;Egira;Achaea;--Hematology Prenatal Testing--Hormone, Immunological, Biochemistry--Hematology allergy tests--Examinations for Security Forces--Allergy test--Amniocentesis and karyotype--Antibiogram--Antibody testing;22.352414977524486;38.14985684361203;tel:+302696033633;https://el-gr.facebook.com/medicare.lab.gr
IANO EPIRUS;135 Ethnikis Antistaseos St;Kardamitsia;Ioannina;--Magnetic resonance--Computed tomography low radiation--Digital mammography--Ultrasound, Vascular triplex--CT scanner--MRI scanner--Check up;20.81231086684064;39.67262937272415;tel:+302651111707;https://iano.gr/
MAGNITIKI AXONIKI TOMOGRAFIA - KENTRO MASTOU ISTHMOU;;Isthmia;Corinthia;--Allergy test--Amniocentesis and karyotype--Biochemical--Blood tests;;;tel:+302741071234;https://www.matp.gr/
IATRIKI TOMOGRAFIA E.E.;E.O. Nafpaktou - Iteas;Nafpaktos;Etoloakarnania;--64 slice CT scanner--MRI, Ultrasound scanning, Triplex--Digital panoramic X-ray, mammography--Bone mass, bone density measurement--CT scanner--MRI scanner--Abdominal ultrasounds--Bone density measurement;21.851636596491957;38.40014249983414;tel:+302634021737;http://www.iatriki-tomografia.gr/
ASKLIPIEION VITA A.E.;205 Karaiskaki Street & Gounari Avenue;Patra;Achaea;--Department of Microbiology & Radiology--Heart & Lung Department--Gastroenterological, Endoscopic Dept--Prenatal & Molecular Testing--Allergy test--Blood tests--Check up--CT scans;21.73375071043499;38.242748087914705;tel:+302610313900;http://www.asklipieionvita.gr/
ÂÉÏÄÉÁÃÍÙÓÇ - DROUKOPOULOU - TSOUPRA AGGELIKI;275 Korinthou Avenue & Ermou Street;Patra;Achaea;--Allergy test--Antibiogram--Antibody testing--Biochemical;21.736293347282043;38.2465997445386;tel:+302610276101;
MEDIPROLIPSIS - ÂÁ×ËÉÙÔÇÓ ÂÁÓÉËÅÉÏÓ;40 Foka Ioanni Street;Athens;Attica;--Bed for Tilt Test--Machines for acute-chronic pain--Multiple examination beds--Pressoop therapy devices;23.7457393153132;38.024208680007455;tel:+302110102558;
IATREIO YPERICHON & TRIPLEX AGGEION KAMVYSIS G. DIMITRIOS - PALAFOUTA I. ELPIDA;48 Soutsou Dimitriou Street;Athens;Attica;--;23.757767930844896;37.98702011029965;tel:+302110123943;http://www.yperixoi.gr/
EVRODIAGNOSI KERKYRAS AE;8th Ioanni Theotoki Byway;Corfu;Corfu;--CT, MRI Scanner--Microbiology, Radiology Lab--Contracted with ETAA, Coast Guard--Ultrasounds, Triplex, Mammography--Blood tests;19.913306286692503;39.62453659529124;tel:+302661083800;http://www.eurodiagnosis.gr/
IATRIKI DIAGNOSI SALVARA;78 Stratarchi Papagou Street;Agios Dimitrios;Attica;--Abdominal ultrasounds--Allergy test--Antibody testing--Biochemical;23.73503981284729;37.938968462565;tel:+302109750750;http://www.iatrikidiagnosi.com/
BREAST PROLIPSIS - ARCHONTI ANTIGONI;77 Tsimiski Ioanni Street;Thessaloniki;Thessaloniki;--Abdominal ultrasounds--Bone density measurement--Breast elastography--Breast ultrasound;22.945341303227185;40.63132756524824;tel:+302310252329;https://www.breastprolipsis.gr/
DIAGNOSIS;34 Tsakmani Serafeim Street;Lagkadas;Thessaloniki;--;23.06435345623971;40.74895886551629;tel:+302394020020;http://www.diagnosis-lagada.gr/
ARKADIKO DIAGNOSTIKO IATREIO;19 Karakalou Street;Tripoli;Arcadia;--Abdominal ultrasounds--Breast ultrasound--Exam packages--Stress test;22.372660886346647;37.5089295119459;tel:+302710228000;http://www.arkadiko-diagnostiko.gr/
MINOAN LABS;Panepistimiou Avenue;Heraklion;Heraklion;--Biochemical analyzer--Hematology analyzer--Multiple examination beds--Tanita Fat Meter;25.08787243779241;35.30653102782719;tel:+302810371763;http://www.minoanlabs.gr/
LINARDOS APOSTOLOS;6 Koropouli Vangeli Street;Mandra;Attica;--Abdominal ultrasounds--Carotid triplex--Ultrasound bladder--Ultrasound kidney;23.496758979518155;38.07390485294897;tel:+302105556779;https://www.facebook.com/%CE%94%CE%B9%CE%B1%CE%B3%CE%BD%CF%89%CF%83%CF%84%CE%B9%CE%BA%CF%8C-%CE%9A%CE%AD%CE%BD%CF%84%CF%81%CE%BF-%CE%9B%CE%B9%CE%BD%CE%AC%CF%81%CE%B4%CE%BF%CF%82-%CE%91%CF%80%CE%BF%CF%83%CF%84%CF%8C%CE%BB%CE%B7%CF%82-105550624862781
KOSMOIATRIKI;237 28 Oktovriou Street (Patision Street);Athens;Attica;--CT scanner--Hematology analyzer--MRI scanner--Abdominal ultrasounds;23.735026804053597;38.00910660346017;tel:+302108640918;http://www.kosmoiatriki.com/
MAGNITIKI TOMOGRAFIA VOLOU A.E.;23 Dimitriados Avenue;Volos;Magnesia;--MRI--Magnetic resonance--Contracted funds with EOPYY--CT scanner--MRI scanner--Check up;22.94165678184026;39.363047736757665;tel:+302421024003;http://www.mri-volos.com.gr/
ASKLIPIOS DIAGNOSIS;10 Machis Kritis Street;Heraklion;Heraklion;--Blood tests;25.12207912943075;35.33753228079531;tel:+302810528000;https://asklipios-diagnosis.gr/
MIKRODIAGNOSTIKI - CHATZIMPOUGIAS IOANNIS Dr - CHATZIMPOUGIAS DIMITRIS Dr;Plateia Eleftherias 7;Kozani;Kozani;--Check up--Gynecological--Immunological--Neurological examinations;21.78598618602033;40.30134173769484;tel:+302461029109;http://www.microdiagnostics.gr/
DIAGNOSTIKO KENTRO APEIKONISEON PAPAGIANNAKI;36 Sfakion Street;Chania;Chania;--Bone density measurement--Breast elastography--Panoramic X-ray--Thyroid elastography;24.02271502923959;35.5117031229563;tel:+302821059933;http://www.papagiannaki-radiology.gr/
VIOTYPOS;13 Pentelis Avenue;Chalandri;Attica;--Allergy test--Antibiogram--Antibody testing--Biochemical;23.802834811890563;38.02328180235678;tel:+302106894509;http://www.biotypos.gr/
DIMITRIADIS A.E.;8 Polyfimou Street;Komotini;Rodopi;--Bone density measurement--CT scans--Doppler--Magnetic resonance imaging;25.402347719082066;41.11614055513177;tel:+302531029609;http://xdimitriadis.gr/
TOSKAS DIMITRIOS - DIAGNOSI O.E.;Tagm. Georgouli 8;Giannitsa;Pella;--Blood tests--CT scans--Magnetic resonance imaging--Mammographies;22.412061663438777;40.79165043985165;tel:+302382022855;http://www.toskas.com.gr/
MAGNITIKI AXONIKI TOMOGRAFIA - KENTRO MASTOU ISTHMOU;;Isthmia;Corinthia;--Allergy test--Amniocentesis and karyotype--Biochemical--Blood tests;;;tel:+302741071234;https://www.matp.gr/
POLYIATREIO IASI ÉÊÅ;16 Kalyvion Avenue & Panaitolikou Street;Lamia;Fthiotida;--Digital radiography--Mammographies;22.413648426071568;38.892975922823815;tel:+302231066555;http://iasilamia.gr/
AIMODIAGNOSI MED;197 Trikoupi Charilaou Street;Kifisia;Attica;--Antibiogram--Antibody testing--Blood tests--Breast ultrasound;23.803781034663896;38.08711173418963;tel:+302108075448;http://www.aimodiagnosimed.gr/
YGEIA IOANNINON IATRIKI IKE;1 Dragoumi Ionos Street;Ioannina;Ioannina;--Abdominal ultrasounds--Bone density measurement--Carotid triplex--CT scans;20.824884306411143;39.685170520340215;tel:+302651021000;https://www.ygeia-ioannina.gr/
YGEIA THESPROTIAS;41 Egnatia Street;Igoumenitsa;Thesprotia;--Abdominal ultrasounds--Carotid triplex--CT scans--Digital cephalometric radiography;20.260854683762613;39.48608166573401;tel:+302665021050;http://www.thesygeia.gr/
IPPOKRATIS KOZANIS AE;1 Filippou II Street;Kozani;Kozani;--Body composition--Bone density measurement--Coronavirus test (Molecular)--Digital 3D mammography;21.793796293200824;40.30177025087115;tel:+302461054400;http://www.ippokratiskoz.gr/
IATRIKI PISTI A.E.;72 Kritis Street;Nea Ionia;Attica;--Abdominal ultrasounds--Allergy test--Angiography (OCT)--Antibiogram;23.750967634280208;38.04142527395114;tel:+302102717066;http://www.iatrikipisti.gr/
IATRIKI DIAGNOSI TOMOGRAFIA;117 Venizelou Eleftheriou Street & Raftoudi Vasileiou Street;Serres;Serres;--Allergy test--Angiography (OCT)--Antibiogram--Antibody testing;23.538450703689936;41.08710684043287;tel:+302321083030;https://www.facebook.com/idtomografia
YGEIA LAMIAS IKE;24 Anthilis Street;Lamia;Fthiotida;--Ultrasound thyroid;22.442875398328653;38.89517155503333;tel:+302231066303;
IATRIKO DIAGNOSTIKO KENTRO;52 Fylis Avenue;Kamatero;Attica;--Abdominal ultrasounds--Allergy test--Antibiogram--Antibody testing;23.713961746704364;38.059627937363864;tel:+302111825779;https://iatrikodiagnostikokentro.gr/
IDIOTIKA POLYIATREIA ELPIS;119 Kartali Konstantinou Street & 12 Gallias Street;Volos;Magnesia;--Blood tests--Cardiac examination--Check up--Gastroenterology;22.948500123176082;39.362614198768334;tel:+302421036090;
KARAPANAGOS GEORGIOS;4 Mitropoleos Street;Chalkida;Evia;--;23.59605280752455;38.46383044592739;tel:+302221023440;http://www.karapanagos.gr/
MAGNITIKI TOMOGRAFIA XANTHIS AE;12 Agion Apostolon Street;Xanthi;Xanthi;--Magnetic resonance imaging;24.88835652368886;41.1355732271871;tel:+302541084224;http://www.magnitikixanthis.gr/
SAKARELLOS DIAGNOSTIKA KENTRA;36 Elaion Street;Kifisia;Attica;--Biochemical--Blood tests--Carotid triplex--Check up;23.796778920749233;38.09140790761766;tel:+302108002100;http://www.sakarellos.gr/
VIODIAGNOSI A.E.;15 Zafeiropoulou Panou Street;Corfu;Corfu;--Biochemical--Check up--Cultivation--Cystic Fibrosis Examinations;19.919139121683376;39.62021193308506;tel:+302661039043;http://www.biodiagnosi-corfu.gr/
IASIS;2 Mpizaniou Street;Kalamata;Messinia;--Bone density measurement--Digital 3D mammography--Elastographs--Magnetic resonance imaging;22.109540221269928;37.04066962536483;tel:+302721091010;https://iasisrad.gr/
SAKARELLOS DIAGNOSTIKA KENTRA;2 Lampraki Grigoriou Avenue & 2 Thiseos Avenue;Drosia;Attica;--Abdominal ultrasounds--Antibiogram--Biochemical--Blood tests;23.858247094903348;38.12051897081512;tel:+302108131111;http://www.sakarellos.gr/
MYKONIAN HYGEIA POLYCLINIC;;Mykonos;Cyclades;--Orthopedic, General Practitioner--Triplex, Ophthalmology, Gynecology--Cardiologist, CT Scan--Microbiological, Radiologist--Blood tests--Gynecological--Urine tests--X-Rays;;;tel:+302289024211;http://www.mykonos-health.com/
SAKARELLOS DIAGNOSTIKA KENTRA;70 Marathonos Avenue;Anixi (or Paleo Bogiati);Attica;--Allergy test--Antibody testing--Biochemical--Blood tests;23.858711641273153;38.13402048376326;tel:+302108004888;http://www.sakarellos.gr/
PROLIPSIS;1 Sevasteias Street & 88A Michalakopoulou Andrea Street;Athens;Attica;--Microbiological, Pap test--Nuclear Medicine, Ultrasound in Kids--Elastography, Cardiology, Triplex--Breast Exam, Digital Mammography--Blood tests--Mammographies--Scintigraphy--Triplex;23.756582360470006;37.98050136452086;tel:+302107483110;http://www.prolipsismed.gr/
VITAE;94 Galatsiou Avenue;Galatsi;Attica;--Coronavirus test (Molecular)--Cultivation--Measurement of vitamins--Prenatal control;23.74975062948088;38.013924661623605;tel:+302102222231;http://vitae.gr/
MAGNITIKI AXONIKI TOMOGRAFIA - KENTRO MASTOU ISTHMOU;;Isthmia;Corinthia;--Allergy test--Amniocentesis and karyotype--Biochemical--Blood tests;;;tel:+302741071234;https://www.matp.gr/
DIAGNOSTIKA ERGASTIRIA PARAFESTA;61 Aerodromiou Street;Larissa;Larissa;--Blood tests--Magnetic resonance imaging--Scintigraphy--X-Rays;22.429827257664126;39.64694330878661;tel:+302410537411;https://www.parafestas.gr/
AKTINODIAGNOSTIKO ERGASTIRIO ALEXANDROUPOLIS;9 Anthemiou Street & Aftokrateiras Theodoras Street;Alexandroupoli;Evros;--EOPYY, MRI Scanner, CT Scanner--Bone Density Test, Ultrasounds--Mammography, Angiography, Radiography--Vascular Triplex, Dental Panoramic--CT scanner--Digital mammogram--MRI scanner--Breast ultrasound;25.873770846883918;40.85259611355375;tel:+302551031110;http://www.aktinodiagnostikoergastirio.gr/
BIOANALYSIS - MANTAS S. GEORGIOS;9 Asklipiou Street;Nafplion;Argolida;--Biochemical analyzer--Hematology analyzer--Antibody testing--Biochemical;22.80874478458355;37.567166047148284;tel:+302752024768;http://www.e-bioanalysis.gr/
AIMODIAGNOSI MED - PALOGIANNIDIS CHARALAMPOS Dr.;43 Kyprou Street;Corinth;Corinthia;--Biochemical--Blood tests--Coronavirus test (Molecular)--Hormonal;22.933551448814264;37.938552928458;tel:+302741023500;
KARYO;51 Ermou Street;Thessaloniki;Thessaloniki;--Molecular Biology and Genetics--Genetic Predisposition to Cancer--Noninvasive Prenatal Testing (NIPT)--Karyotype, Cytogenetics--Antibody testing--Biochemical--Blood tests--Check up;22.943360821406788;40.634696662714056;tel:+302310235233;http://www.karyo.gr/
KOURIOTIS A. EMMANOUIL;1 Kapodistriou Street;Argos;Argolida;--;22.72641723128599;37.63420070859791;tel:+302751021009;http://www.facebook.com/%CE%9C%CE%B9%CE%BA%CF%81%CE%BF%CE%B2%CE%B9%CE%BF%CE%BB%CE%BF%CE%B3%CE%B9%CE%BA%CF%8C-%CE%95%CF%81%CE%B3%CE%B1%CF%83%CF%84%CE%AE%CF%81%CE%B9%CE%BF-%CE%9A%CE%BF%CF%85%CF%81%CE%B9%CF%8E%CF%84%CE%B7%CF%82-%CE%95%CE%BC%CE%BC%CE%B1%CE%BD%CE%BF%CF%85%CE%AE%CE%BB-812209332135169
YGEIA PAIDIAGNOSTICS - HOURSALAS ATHANASIOS;25 Periandrou Street;Corinth;Corinthia;--Abdominal ultrasounds--Cardiac examination--Check up--Stress test;22.93082316829365;37.939925115995784;tel:+302741074064;https://www.ygeia-paidiagnostics.gr/
FAROS MEDICAL LAB;1 Vasileiou Dimitri Street;Neo Psychiko;Attica;--Blood tests--Triplex;23.77698926051356;38.00247910404581;tel:+302106775360;http://www.farosmedical.gr/
BIODIAGNOSIS SITHONIA;;Nikiti (or Nikitas);Halkidiki;--Microbiological, Biochemical, Immunolo--Complete x-ray examinations--All ultrasound examinations--High resolution digital mammography--Blood tests--Microbiological--Osteoporosis control--X-Rays;;;tel:+302375022223;https://biodiagnosi-sithonia.gr/
DIAGNOSI AGIAS TRIADAS;Paraplevros Perifereiakou Iatreiou;Agia Triada;Argolida;--Allergy test--Check up--Gastroenterology--Gynecological;22.80524210301782;37.63753090184264;tel:+302752096050;
FOTOPOULOU ANASTASIA;25 Diamantidi Dimitriou Street;Korydallos;Attica;--Mammographies;23.64806091369727;37.97691001601598;tel:+302104950570;
IATREIO YPERICHON - CHRISTOFORIDOU AGAPI;29 Evangelismou Theotokou Street;Evosmos;Thessaloniki;--Ultrasounds;22.91099789128419;40.66804265097703;tel:+302314034398;http://www.yperixos-christoforidou.gr/
AKTINODIAGNOSTIKO KENTRO - LEVANTIS GEORGIOS;33 Metaxa Ioanni Street;Peania;Attica;--;23.85645283350321;37.95864712676773;tel:+302182189915;https://pmi-medical.gr/
LIFE CODE;6 Karystou Street;Athens;Attica;--Biochemical--Blood tests--Check up--Prenatal control;23.76254475544562;37.992428549016395;tel:+302106917172;http://www.life-code.gr/
LUMEDICA;32 Varnali Kosta Street;Egaleo;Attica;--Antibody testing--Coronavirus test (Molecular)--Hormonal--Immunological;23.67266375103587;37.987778439396614;tel:+302103004000;
EVRODIAGNOSI;1 Adrianoupoleos Street;Kalamaria;Thessaloniki;--Biochemical--Blood tests--Bone density measurement--CT scans;22.95454503109729;40.589332296457286;tel:+302310424500;
ATSALI - STOUGIANNOU VIKY;Leoforos Tsaldari Panagi 52 & Piliou;Peristeri;Attica;--;23.69253179567416;38.0159700786658;tel:+302105766227;http://www.pedoaktinologos.gr/
MIKROANALYSI IATRIKI ATHINON AE;104 Panagouli Alekou Street;Agia Paraskevi;Attica;--Allergy test--Antibody testing--Biochemical--Blood tests;23.842570340462633;38.01480657522667;tel:+302106006900;https://microanalysi.gr/
MIKROLAB;15A Kolokotroni Theodorou Street;Chalandri;Attica;--Biochemical--Blood tests--Coronavirus test (Molecular)--Cultivation;23.798290201276252;38.0227874029842;tel:+302106855799;
IATRIKO DIAGNOSTIKO KENTRO YGEIA;5 Kentrikis Street;Veroia;Imathia;--Bone density measurement--CT scans--Magnetic resonance imaging;22.200227898207086;40.52094749680264;tel:+302331072727;http://www.ygeiaveria.gr/
MAGNITIKI AXONIKI TOMOGRAFIA - KENTRO MASTOU ISTHMOU;;Isthmia;Corinthia;--Allergy test--Amniocentesis and karyotype--Biochemical--Blood tests;;;tel:+302741071234;https://www.matp.gr/
IATROSIMO EPE;86 Agiou Meletiou Street;Athens;Attica;--Blood tests--Bone density measurement--Gynecological--Mammographies;23.730057272772807;38.000596208906664;tel:+302108660222;https://iatrosimo.gr/
MEDITEST SYGCHRONA IDIOTIKA DIAGNOSTIKA ERGASTIRIA;26 Ethnikis Antistaseos Avenue;Kaisariani;Attica;--Allergy test--Antibody testing--Biochemical--Blood tests;23.75527721313325;37.96890809995429;tel:+302107010071;https://www.meditest.gr/
MEDI TEST DIAGNOSTIKA ERGASTIRIA VRILISSION;32 Kyprou Street;Vrilissia;Attica;--Blood tests--Check up--Gynecological--Triplex;;;tel:+302108080093;http://www.meditest.gr/
MEDITEST DIAGNOSTIKA ERGASTIRIA KAMATEROU;14 Kamaterou Avenue;Kamatero;Attica;--Antibody testing--Biochemical--Blood tests--Check up;23.712104366089147;38.05655005942206;tel:+302130116431;https://www.meditest.gr/
FLOW DIAGNOSIS;126 Ymittou Street;Athens;Attica;--Blood tests;23.747328682018516;37.96611532872144;tel:+302107515502;http://www.diagnostikokentro.gr/
EVROMORIAKI A.E.;Athinon - Korinthou Old National Road;Agioi Theodoroi;Corinthia;--Allergy test--Blood tests--Check up--Mammographies;23.100191475927787;37.917683921339155;tel:+302741069307;
IRODOTOS;148 Irodotou Avenue & 147 Dimokratias Street;Nea Alikarnassos;Heraklion;--Allergy test--Biochemical--Blood tests--Body composition;25.158856554869;35.33783447892149;tel:+302810240100;http://www.irodotosmed.gr/
APOLLONIO DIAGNOSTIKO KENTRO YPERICHON;7 Mousourou Markou Street;Heraklion;Heraklion;--Bone density measurement--Ultrasounds;25.131839212171013;35.33596261295535;tel:+302810300189;https://www.apolonion.com/
DROUGKAS CHATZIPANAGIOTOU IDIOTIKO DIAGNOSTIKO ERGASTIRIO IATRIKI O.E.;37 Aeroporou Rodokanaki Street;Chios;Chios;--Antibiogram--Blood tests--Coronavirus test (Molecular)--Cultivation;26.136562924123353;38.35494373279335;tel:+302271080750;
GENOME ILLUSTRATION - DIAGNOSTIKO ERGASTIRIO GENETIKIS & MORIAKIS VIOLOGIAS;Ernest Bevin Street & 40 Kanada Street;Rhodes;Dodecanese;--Infertility & Miscarriage Tests--Prenatal Checkup & Counseling--Diseases & Cancer Indicators Screening--Molecular Infections Control--Amniocentesis and karyotype--Coronavirus test (Molecular)--Examinations for hepatitis B, C--Molecular tests;28.233314777711698;36.43834826168972;tel:+302241062315;
IASSIS MEDICAL;;Laganas;Zakynthos;--Antibiogram--Biochemical--Blood tests--Check up;;;tel:+302695051095;http://www.iassismedical.gr/
KENTRO AXONIKIS TOMOGRAFIAS - OSTEOPOROSIS DIAGNOSI AE;37 Vassani Panteli Street;Volos;Magnesia;--Magnetic resonance imaging;22.940604561453227;39.36508353091431;tel:+302421023338;
KARYO;Leoforos Mesogeion 73 & Ilidos 35;Athens;Attica;--Genetic Predisposition to Cancer--Noninvasive Prenatal Testing (NIPT)--Karyotype, Cytogenetics--Blood tests--Check up--Coronavirus test (Molecular)--Exam packages;23.76734046890308;37.98847247794274;tel:+302106410054;http://www.karyo.gr/
VITAE;127 Kafkasou Street;Athens;Attica;--Cardiac examination--Coronavirus test (Molecular)--Immunological--Measurement of vitamins;23.748381838064432;38.00444025402314;tel:+302108613331;http://vitae.gr/
VIODIAGNOSTIKI PEIRAIA;4 Iroon Polytechneiou Avenue;Piraeus;Attica;--Biochemical--Cardiac examination--CT scans--Magnetic resonance imaging;23.648951234692003;37.945358604370355;tel:+302104222335;http://www.biodiagnostics.gr/
VIODIAGNOSTIKI ATHINAS;146 Michalakopoulou Andrea Street;Athens;Attica;--Biochemical--Bone density measurement--Cardiac examination--Cultivation;23.761790622118692;37.98263004990103;tel:+302107774000;http://www.biodiagnostics.gr/
KITRINOS STAVROS;144 Patron Avenue;Corinth;Corinthia;--;22.912051752336062;37.93413822464297;tel:+306943534333;
ADAMIDOU - MYLONA MARIA - A' DIAGNOSI;8 Temponera Street;Zante;Zakynthos;--Biochemical analyzer--Coronavirus test (Molecular)--Cultivation--Microbiological;20.89876896445675;37.775891560133566;tel:+302695042522;
DOCTORS HOSPITAL;26 Kefallinias Street & 28 Oktovriou Street (Patision Street);Athens;Attica;--;23.735473699138915;37.99886002635149;tel:+302108807000;
KAFTANTZI A. I.K.E.;3 Prigkipa Christoforou Street;Serres;Serres;--;23.549371809012595;41.09184323135332;tel:+302321052200;
MAGNITIKI AXONIKI TOMOGRAFIA - KENTRO MASTOU ISTHMOU;;Isthmia;Corinthia;--Allergy test--Amniocentesis and karyotype--Biochemical--Blood tests;;;tel:+302741071234;https://www.matp.gr/
INTERGENETICS HELLAS S.A.;120 Vasilissis Sofias Avenue;Athens;Attica;--;23.760847291785986;37.98558435420402;tel:+302107705010;
POLYIATREIO - AKESO;3 Kyriakidi Stilponos Street;Komotini;Rodopi;--;25.401849102575703;41.116777157454514;tel:+302531025211;
KNOSSOS DIAGNOSI - LOULAKIS EMMANOUIL;122-124 Irodotou Avenue;Nea Alikarnassos;Heraklion;--Bone density measurement--Mammographies--Triplex--X-Rays;25.158238260185644;35.3392289143301;tel:+302810222210;
IATRIKI PERITHALPSI A.E.;Neos Marmaras, 63081;Neos Marmaras;Halkidiki;--;23.78299195187617;40.094921302061586;tel:+302375072585;
IATRIKO KENTRO PERISTERIOU - NEVROLOGIKO TMIMA;60 Ethnarchi Makariou Street;Peristeri;Attica;--Blood tests;23.700868295988045;38.00540152900707;tel:+302105799012;
IASO - DIAGNOSTIKO - THERAPEFTIKO - PATHOLOGOANATOMIKO TMIMA;37-39 Kifisias Avenue;Marousi;Attica;--Blood tests--Mammographies;23.79577459787336;38.03426536512079;tel:+302106185218;
DIAGNOSTIKO KALAMARIAS DIMOKRITOS;32 Adrianoupoleos Street;Kalamaria;Thessaloniki;--;22.957690430543963;40.58463121219066;tel:+302310440369;
SIKALIDOU NIOPI;;Kilkis;Kilkis;--;;;tel:+302341064915;
MEDICON HELLAS A.E.;3 Melitonos Street;Gerakas;Attica;--Biochemical--Blood tests--Check up--Immunological;23.86184334295652;38.0282328540345;tel:+302106606060;
MORFI AE;164 Kifisias Avenue;Neo Psychiko;Attica;--;23.775875971067997;38.00525294029453;tel:+302106729900;
PAPATZANAKI - MATHIOULAKI MARIA & SIA IATRIKI OE;58 Sfakion Street;Chania;Chania;--;24.02376243565288;35.51091847255156;tel:+302821053122;
AGIOS PANTELEIMONAS;1st KM Agiou Nikolaou - Ierapetras Road;Ierapetra;Lassithi;--;25.745071885190203;35.01485427738368;tel:+302842503090;
IASO - DIAGNOSTIKO - THERAPEFTIKO - ENDOKRINOLOGIKO - DIAVITOLOGIKO - TMIMA OSTEOPOROSIS;37-39 Kifisias Avenue;Marousi;Attica;--;23.79577459787336;38.03426536512079;tel:+302106185229;
SYGCHRONI DIAGNOSI;2 Katraki Vasos Square;Glyfada;Attica;--CT scans--Doppler--Magnetic resonance imaging--Nuchal translucency;23.747156387571668;37.86352037404535;tel:+302108983350;
IATRIKI DIAGNOSI PERAMATOS;67 Eirinis Avenue;Perama;Attica;--Cardiac examination--Doppler--Mammographies--Urine tests;23.56466362923552;37.96424731034032;tel:+302104020056;
VIOKLINIKI THESSALONIKIS - LOGISTIRIO ASTHENON;86 Mitropoleos Street;Thessaloniki;Thessaloniki;--;22.947101509292388;40.629172573768145;tel:+302310372874;
IASO - DIAGNOSTIKO - THERAPEFTIKO - TMIMA KATH EXIN APOVOLON;37-39 Kifisias Avenue;Marousi;Attica;--Mammographies;23.79577459787336;38.03426536512079;tel:+302106184060;
SAVVIDOU ELENI I. GKREKO;23 Venizelou Eleftheriou Street;Sidirokastro;Serres;--;23.392818076181097;41.236853576390885;tel:+302323025270;
GONIANAKIS I. MICHAIL.;66 Thenon Street;Heraklion;Heraklion;--;25.12590391207164;35.33325002385848;tel:+302810344309;
LAZARI CH PANAGIOTA;46 Agiou Konstantinou Street;Megalopoli;Arcadia;--;22.13974836753507;37.39725979113891;tel:+302791023301;
MAGNITIKI AXONIKI TOMOGRAFIA - KENTRO MASTOU ISTHMOU;;Isthmia;Corinthia;--Allergy test--Amniocentesis and karyotype--Biochemical--Blood tests;;;tel:+302741071234;https://www.matp.gr/
DIAGNOSTIKO KENTRO LARISAS AE;Palama 10;Larissa;Larissa;--Check up--Hormonal--Microbiological--Urine tests;22.42022180728677;39.6383349537742;tel:+302410579800;
KASTALIA;6 Ita Street;Elliniko;Attica;--;23.73282640399765;37.880748681835726;tel:+302108980633;
KARDIOLOGIKO ATHINON A.E.;330 Kifisias Avenue;Chalandri;Attica;--Scintigraphy;23.790050995562083;38.02742358708723;tel:+302106855951;
DEIKTIS YGEIAS EPE;39 Mithymnis Street;Athens;Attica;--Blood tests--Coronavirus test (Molecular)--Mammographies--Triplex;23.73356040119454;38.00196513435149;tel:+302108665500;
DIAGNOSI - PEIRAIAS;85 Miaouli Andrea Coast;Piraeus;Attica;--;23.638124177750793;37.93677256079453;tel:+302104291292;
NEOSCREEN;1-3 Voreiou Ipeirou Street;Vrilissia;Attica;--Coronavirus test (Molecular)--Prenatal control;23.840051320103413;38.04687972930413;tel:+302111826130;
MED HALL;;Kontokali;Corfu;--;;;tel:+302661770265;
LAMPROU SPYROS;118B Kifisias Avenue;Athens;Attica;--;23.7678444614018;37.99477345620207;tel:+306944726908;
KONSTANTINOU ANDREAS N.;36 Sfakion Street;Chania;Chania;--;24.02271502923959;35.5117031229563;tel:+302821055275;
DNA BIOLAB;4 Alexiou Ellis Street;Heraklion;Heraklion;--;25.113587232501;35.33853047402456;tel:+302810323034;
IASO - PLIROFORIES - LOGISTIRIO ASTHENON;37-39 Kifisias Avenue;Marousi;Attica;--Mammographies;23.79577459787336;38.03426536512079;tel:+302106184105;
PSIFIAKO DIAGNOSTIKO KENTRO MESSINIS;Dimarchou Koutsika Street & Ypsilanti Alexandrou Street;Messini;Messinia;--;22.00909108069195;37.04766943646797;tel:+302722023828;
VIOANALYSI - PAPPADA E. & SIA O.E.;3 Panos Street;Larissa;Larissa;--Blood tests--Coronavirus test (Molecular)--Molecular tests--Test antibodies coronavirus;22.416700151466646;39.63895371276093;tel:+302410532696;
ELLINIKO KRANIOPROSOPIKO KENTRO;296 Kifisias Avenue;Chalandri;Attica;--Biochemical--Blood tests--Neurological examinations--Ophthalmological examinations;23.789690116256015;38.022132427076194;tel:+302107239510;
VIOIATRIKI;119 Olympiados Street;Thessaloniki;Thessaloniki;--;22.95349551056482;40.63768068357553;tel:+302310459660;
PARISIS - EUROMEDICA SERRON;10 Ethnikis Antistaseos Street;Serres;Serres;--;23.551884994335296;41.09171791247263;tel:+302321022576;
TZARTOS - NEVRODIAGNOSTIKI;3 Eslin Konstantinou Street;Athens;Attica;--Blood tests;23.760227440456823;37.987097252374426;tel:+302106411060;
EVINOR;Gianouzi & Irakleitou;Agrinio;Etoloakarnania;--CT scanner--Blood tests--Digital mammography--Triplex;21.409612618333824;38.623570608564;tel:+302641069800;
ARGYRIOU - MOUCHASIRIS;42 Epameinonda Street;Kallithea;Attica;--;23.689420550717657;37.94329125630894;tel:+302109483334;
NOSOKOMEIO ERRIKOS NTYNAN - PATHOLOGIKOS TOMEAS - ENDOKRINOLOGIKO TMIMA - GRAMMATEIA;107 Mesogeion Avenue;Athens;Attica;--;23.77010256292431;37.99013627405831;tel:+302106972150;
MAGNITIKI AXONIKI TOMOGRAFIA - KENTRO MASTOU ISTHMOU;;Isthmia;Corinthia;--Allergy test--Amniocentesis and karyotype--Biochemical--Blood tests;;;tel:+302741071234;https://www.matp.gr/
VIOPROLIPSIS - KEFALLONITI VASILIKI;11 Stavrou Perikli Street;Athens;Attica;--Blood tests--Gynecological--Immunological--Test antibodies coronavirus;23.768722806775383;37.997956720268164;tel:+302106912191;
EUROMEDICA;225-227 Kifisias Avenue;Kifisia;Attica;--Check up--Gynecological--Microbiological;23.81300716912308;38.07781663943977;tel:+302106127644;
VLEMMA OFTHALMOLOGIKO KENTRO;91 Dimokratias Avenue;Neo Psychiko;Attica;--;23.786195220218058;38.00154985190341;tel:+302108210808;
KYTTARO KAI ISTOS;23 Filopoimenos Street;Patra;Achaea;--;21.73242687863833;38.245272566621075;tel:+302610222160;
KLINIKI LEFKOS STAVROS ATHINON A.E. - PLIROFORIES & RANTEVOU;Papadiamantopoulou Ioanni Street 16 & Sisini Georgiou Street 1;Athens;Attica;--;23.75430045566979;37.978450699656825;tel:+302107256978;
TSAKOS SPYRIDON CHR.;10-12 Megarovou Street;Florina;Florina;--;21.40896561971223;40.77949686188705;tel:+302385045031;
DIAGNOSTIKA KENTRA YGIEIA PETANI;4 Sampsountos Street;Agios Dimitrios;Attica;--;23.72406789521752;37.92408091582644;tel:+302109824020;
NEVRODIAGNOSI;63A Katechaki Georgiou Street;Athens;Attica;--;23.771073954457542;37.99637505975652;tel:+302106980811;
AGIA AIKATERINI A.E.;;Exohi;Thessaloniki;--;;;tel:+302310357337;
PSYCHIATRIKI KLINIKI KONTOGOUNI ZISI & SIA O.E.;31 Vermiou Street;Kozani;Kozani;--;21.79960103870094;40.30018730762888;tel:+302461035146;
IASO - DIAGNOSTIKO - EIDIKES MONADES - MONADA ENTATIKIS NOSILEIAS;37-39 Kifisias Avenue;Marousi;Attica;--Mammographies;23.79577459787336;38.03426536512079;tel:+302106184259;
CHECK UP ATHINON;6A Kontou Konstantinou Street;Athens;Attica;--;23.735910050187332;38.013750189697966;tel:+302102231021;
NTOUNIS N. IOANNIS;149 Kanakari Street;Patra;Achaea;--;21.73587654184344;38.245303154028704;tel:+302610624157;
MEDICS S.A.;54 Egnatia Street;Thessaloniki;Thessaloniki;--;22.941500636838285;40.63717498417652;tel:+302310244512;
AIMODIAGNOSI MED;29-31 Karaiskaki Georgiou Street;Afidnes (or Kiourka);Attica;--;23.835696274409344;38.20530713243729;tel:+302295053100;
MICROBIOMEDICA OE - IDE;6 Chrysostomou Smyrnis Avenue & Mantika Christou Street;Rafina;Attica;--;24.01104834626117;38.016425587136695;tel:+302294023771;
CHANIA RADIOLOGY CONSULTANTS;;Platanias;Chania;--;;;tel:+302821068877;
VIOKLINIKI THESSALONIKIS - IATROI;86 Mitropoleos Street;Thessaloniki;Thessaloniki;--;22.947101509292388;40.629172573768145;tel:+302310372760;
2o DIMOTIKO IATREIO ATHINON - NEOS KOSMOS;Smith Freiderikou Street & Fanosthenous Street;Athens;Attica;--;23.723518669951428;37.95831971181096;tel:+302109239865;
IATRIKA DIAGNOSTIKA ERGASTIRIA EPE;27 Skoufa Nikolaou Street;Athens;Attica;--;23.739486250060573;37.97857204382877;tel:+302103609363;
MAGNITIKI AXONIKI TOMOGRAFIA - KENTRO MASTOU ISTHMOU;;Isthmia;Corinthia;--Allergy test--Amniocentesis and karyotype--Biochemical--Blood tests;;;tel:+302741071234;https://www.matp.gr/
KOSMOIATRIKI;165 Amfiaraou Street;Athens;Attica;--Blood tests;23.713010806327805;38.00244854221841;tel:+302105157982;
IASO - DIAGNOSTIKO - THERAPEFTIKO - TMIMA KOLPOSKOPISEON;37-39 Kifisias Avenue;Marousi;Attica;--Mammographies;23.79577459787336;38.03426536512079;tel:+302106184053;
KENTRO IMERAS IASIS;73 Krimaias Street;Glyfada;Attica;--Blood tests;23.77251849971072;37.89730784416086;tel:+302109608020;
PLATON IATRIKI AE;14 Sofouli Themistokli Street;Thessaloniki;Thessaloniki;--Blood tests--CT scans--Magnetic resonance imaging--Mammographies;22.954322903158417;40.59600564431906;tel:+302310425901;
PETRIDOU MARINA;19 Ethnikis Antistaseos Street;Serres;Serres;--;23.552906018771022;41.092154262179925;tel:+302321058565;
EVINOR A.E;Mina Zotou;Neohori;Etoloakarnania;--;21.274469334797306;38.408670472169106;tel:+302632093522;
KARYO;72 Ethnikis Antistaseos Street;Kalamaria;Thessaloniki;--;22.959980212639813;40.58937235365284;tel:+302310232200;
NEA PENTELI TZERANI E.;1 Pentelis Avenue;Nea Penteli;Attica;--;23.85081041197928;38.05236462699642;tel:+302108044332;
SOMARAKIS EMMANOUIL K.;57 Marathonos Avenue;Nea Makri;Attica;--;23.980192128654416;38.079982570044464;tel:+302294098216;
DIAGNOSTIKI;141 Trikoupi Charilaou Street;Nea Erythrea;Attica;--;23.813824350682083;38.088290712528035;tel:+302106253949;
MORAITIKA MEDICAL CARE;;Moraitika;Corfu;--;;;tel:+302661075203;
PROLIPSI & YGEIA AE;37-39 Dimokratias Avenue;Keratsini;Attica;--Blood tests--Cardiac examination--Hormonal--X-Rays;23.624769560452698;37.958073256947856;tel:+302104082647;
THOMOPOULOU A & SIA OE;;Kavos;Corfu;--;;;tel:+302662061494;
CORFUMEDICA;Kassiopi;Skripero;Corfu;--;19.773903877204074;39.700393898279366;tel:+302663081661;
VIOERGASTIRIAKI;273 Korinthou Avenue;Patra;Achaea;--;21.736438444599415;38.24671067418746;tel:+302610277015;
DIAGNOSTIKO KAI THERAPEFTIKO KENTRO ATHINON YGEIA AE - TMIMA MARKETING;4 Erythrou Stavrou Street & Kifisias Avenue;Marousi;Attica;--;23.789228460193563;38.028179190599694;tel:+302106867021;
HEALTH SPOT - PERISTERI;1 Sarantaporou Street & Tsaldari Panagi Avenue;Peristeri;Attica;--;23.693276151879406;38.01504370408038;tel:+302128086200;
KOPANAKIS KONSTANTINOS G.;Plateia Eleftheriou Venizelou;Ierapetra;Lassithi;--;25.738827092765828;35.00820899425994;tel:+302842089178;
PANOPOULOS TH. AE;280 Dimokratias Avenue;Acharnes;Attica;--;23.73056045352385;38.05604403216853;tel:+302102387728;
REA MAIEFTIKI GYNAIKOLOGIKI KLINIKI - MONADA ENTATIKIS NOSILEIAS NEOGNON;Leoforos Syggrou Andrea 383 kai Pentelis 17;Paleo Faliro;Attica;--Bone density measurement--CT scans--Magnetic resonance imaging--Mammographies;23.697088880703408;37.941121108154384;tel:+302109495132;
GASTRENTEROLOGIKI MONADA ATHINAS;44 Kifisias Avenue;Athens;Attica;--Gastroscopy--Colonoscopy--Removal of Polyps (Polypectomy)--Treatment of Complex Diseases--Digestive oncology--Endoscopic gastroenterology--Acid reflux--Acute gastritis;23.764388659343773;37.98919664349877;tel:+302107774445;https://www.gastro-athens.gr/
GASTROHEP - ANAGNOSTOPOULOS GEORGIOS;1 Mouson Street;Psychiko;Attica;--Ulcerative colitis,Barretts esophagus--Colonoscopy, Crohns disease treatment--Colorectal polyps, Acid reflux--Helicobacter pylori, Dyspepsia--Endoscopic gastroenterology--Blood in the stool--Change in evacuation--Gastrointestinal haemorrhage;23.764529727741046;38.002067266845614;tel:+306937106139;http://www.advanced-endoscopy.gr/
FIRST AID AMBULANCE;5 Salaminos Street;Peristeri;Attica;--Hospital services--Mobile response units--Transport of patients 24 hrs a day--Coverage throughout Greece, Events--Response to emergency--Response to non-incidents--Transfer of patients--Transportation for scheduled medical appointments;23.698551476172398;38.00928914899344;tel:+302105556333;http://www.firstaidambulance.gr/
